[ {"name": "STARLINK-36592", "line1": "1 68007U 26039X   26199.79563813  .00008602  00000+0  32168-3 0  9998", "line2": "2 68007  43.0020  28.5687 0001506 272.8958  87.1721 15.27587570 21759"}, {"name": "STARLINK-36911", "line1": "1 68008U 26039Y   26199.85717061  .00007431  00000+0  27925-3 0  9996", "line2": "2 68008  43.0023  28.1725 0001479 261.4816  98.5868 15.27584238 21765"}, {"name": "STARLINK-36956", "line1": "1 68009U 26039Z   26200.24562289  .00008818  00000+0  32945-3 0  9991", "line2": "2 68009  43.0037  25.9288 0003271 265.6783  94.3695 15.27593131 21822"}, {"name": "STARLINK-36953", "line1": "1 68010U 26039AA  26199.84303045  .00006873  00000+0  25896-3 0  9995", "line2": "2 68010  43.0033  28.0552 0001256 266.7275  93.3433 15.27591227 21763"}, {"name": "STARLINK-36991", "line1": "1 68011U 26039AB  26200.23150171  .00007070  00000+0  26615-3 0  9992", "line2": "2 68011  43.0024  25.8388 0001409 263.8149  96.2542 15.27584345 21827"}, {"name": "STARLINK-36936", "line1": "1 68012U 26039AC  26199.83146725  .00006635  00000+0  25032-3 0  9994", "line2": "2 68012  43.0046  27.9775 0001088 269.7991  90.2736 15.27592394 21763"}, {"name": "STARLINK-36967", "line1": "1 68013U 26039AD  26200.24177653  .00008838  00000+0  33022-3 0  9992", "line2": "2 68013  43.0012  25.9134 0001838 267.5683  92.4958 15.27587129 21828"}, {"name": "STARLINK-36985", "line1": "1 68014U 26039AE  26200.22763727  .00006668  00000+0  25155-3 0  9991", "line2": "2 68014  43.0023  25.7780 0001782 263.9063  96.1586 15.27587952 21828"}, {"name": "STARLINK-36335", "line1": "1 68015U 26040A   26199.81756240  .00011057  00000+0  34425-3 0  9996", "line2": "2 68015  97.2821 147.9816 0001332  81.5454 278.5940 15.33450218 21553"}, {"name": "STARLINK-36923", "line1": "1 68016U 26040B   26200.13839885  .00010172  00000+0  31686-3 0  9995", "line2": "2 68016  97.2833 148.3109 0002095  91.3169 268.8314 15.33455658 21602"}, {"name": "STARLINK-36568", "line1": "1 68017U 26040C   26199.80942180  .00023676  00000+0  73294-3 0  9994", "line2": "2 68017  97.2831 147.9946 0002083 102.9208 257.2267 15.33463335 21559"}, {"name": "STARLINK-36930", "line1": "1 68018U 26040D   26199.81484231  .00010402  00000+0  32400-3 0  9991", "line2": "2 68018  97.2834 147.9866 0001850  95.3374 264.8080 15.33452597 21559"}, {"name": "STARLINK-36921", "line1": "1 68019U 26040E   26199.80396765  .00011037  00000+0  34360-3 0  9997", "line2": "2 68019  97.2827 148.0021 0002113  96.1334 264.0150 15.33452257 21558"}, {"name": "STARLINK-36928", "line1": "1 68020U 26040F   26200.13296129  .00010617  00000+0  33064-3 0  9994", "line2": "2 68020  97.2833 148.3186 0001769  80.7794 279.3648 15.33451712 21609"}, {"name": "STARLINK-36858", "line1": "1 68021U 26040G   26200.12208391  .00010359  00000+0  32269-3 0  9997", "line2": "2 68021  97.2854 148.3376 0002059  98.8569 261.2907 15.33451691 21634"}, {"name": "STARLINK-36916", "line1": "1 68022U 26040H   26200.12751956  .00012914  00000+0  40143-3 0  9997", "line2": "2 68022  97.2831 148.3226 0001845  88.6707 271.4747 15.33462341 21603"}, {"name": "STARLINK-36871", "line1": "1 68023U 26040J   26199.86378510  .00010289  00000+0  32053-3 0  9991", "line2": "2 68023  97.2840 148.0746 0001807  90.8305 269.3144 15.33450143 21564"}, {"name": "STARLINK-36891", "line1": "1 68024U 26040K   26199.85834517  .00012452  00000+0  38728-3 0  9994", "line2": "2 68024  97.2831 148.0788 0001877  93.5238 266.6220 15.33453931 21566"}, {"name": "STARLINK-36378", "line1": "1 68025U 26040L   26199.85290675  .00012581  00000+0  39126-3 0  9992", "line2": "2 68025  97.2838 148.0870 0001655  90.9368 269.2064 15.33453127 21567"}, {"name": "STARLINK-36884", "line1": "1 68026U 26040M   26199.85562453  .00010989  00000+0  34208-3 0  9995", "line2": "2 68026  97.2834 148.0846 0002421  97.4733 262.6785 15.33456460 21567"}, {"name": "STARLINK-36940", "line1": "1 68027U 26040N   26199.82027869  .00015873  00000+0  49275-3 0  9997", "line2": "2 68027  97.2831 148.1348 0002079  98.1154 262.0324 15.33457929 21561"}, {"name": "STARLINK-36944", "line1": "1 68029U 26040Q   26199.85018800  .00014383  00000+0  44686-3 0  9993", "line2": "2 68029  97.2833 148.0910 0001803  90.1477 269.9972 15.33454439 21561"}, {"name": "STARLINK-36942", "line1": "1 68030U 26040R   26200.10849110  .00009183  00000+0  28640-3 0  9996", "line2": "2 68030  97.2845 148.3522 0001519  89.5346 270.6071 15.33448348 21605"}, {"name": "STARLINK-36913", "line1": "1 68031U 26040S   26200.30153635  .00013495  00000+0  41949-3 0  9997", "line2": "2 68031  97.2844 148.5444 0001128 110.9388 249.1975 15.33452412 21635"}, {"name": "STARLINK-36935", "line1": "1 68032U 26040T   26200.27978294  .00011313  00000+0  35216-3 0  9997", "line2": "2 68032  97.2845 148.5802 0001033  65.2399 294.8951 15.33450187 21632"}, {"name": "STARLINK-36947", "line1": "1 68033U 26040U   26200.29881715  .00011781  00000+0  36660-3 0  9994", "line2": "2 68033  97.2843 148.5541 0001054  89.2480 270.8883 15.33450922 21636"}, {"name": "STARLINK-36939", "line1": "1 68034U 26040V   26200.28794351  .00008438  00000+0  26339-3 0  9990", "line2": "2 68034  97.2831 148.5644 0001840 111.1422 249.0018 15.33447007 21630"}, {"name": "STARLINK-36943", "line1": "1 68035U 26040W   26200.28250257  .00008487  00000+0  26487-3 0  9991", "line2": "2 68035  97.2841 148.5760 0001507  89.1136 271.0280 15.33450005 22760"}, {"name": "STARLINK-36906", "line1": "1 68036U 26040X   26200.29064614 -.00000506  00000+0 -13336-4 0  9999", "line2": "2 68036  97.2858 148.5610 0001544  95.7429 264.3990 15.33433352 21636"}, {"name": "STARLINK-36388", "line1": "1 68037U 26040Y   26200.28522171  .00010528  00000+0  32790-3 0  9993", "line2": "2 68037  97.2846 148.5699 0001201  67.1782 292.9588 15.33451625 21639"}]