OBJECT_NAME,OBJECT_ID,EPOCH,MEAN_MOTION,ECCENTRICITY,INCLINATION,RA_OF_ASC_NODE,ARG_OF_PERICENTER,MEAN_ANOMALY,EPHEMERIS_TYPE,CLASSIFICATION_TYPE,NORAD_CAT_ID,ELEMENT_SET_NO,REV_AT_EPOCH,BSTAR,MEAN_MOTION_DOT,MEAN_MOTION_DDOT
STARLINK-36592,2026-039X,2026-07-18T19:05:43.134432,15.27587570,.00015061,43.0020,28.5687,272.8958,87.1721,0,U,68007,999,2175,.32167711E-3,.8602E-4,0
STARLINK-36911,2026-039Y,2026-07-18T20:34:19.540704,15.27584238,.0001479,43.0023,28.1725,261.4816,98.5868,0,U,68008,999,2176,.27925249E-3,.7431E-4,0
STARLINK-36956,2026-039Z,2026-07-19T05:53:41.817696,15.27593131,.0003271,43.0037,25.9288,265.6783,94.3695,0,U,68009,999,2182,.32944688E-3,.8818E-4,0
STARLINK-36953,2026-039AA,2026-07-18T20:13:57.830880,15.27591227,.00012569,43.0033,28.0552,266.7275,93.3433,0,U,68010,999,2176,.2589607E-3,.6873E-4,0
STARLINK-36991,2026-039AB,2026-07-19T05:33:21.747744,15.27584345,.00014096,43.0024,25.8388,263.8149,96.2542,0,U,68011,999,2182,.26615E-3,.707E-4,0
STARLINK-36936,2026-039AC,2026-07-18T19:57:18.770400,15.27592394,.00010883,43.0046,27.9775,269.7991,90.2736,0,U,68012,999,2176,.25032123E-3,.6635E-4,0
STARLINK-36967,2026-039AD,2026-07-19T05:48:09.492192,15.27587129,.00018385,43.0012,25.9134,267.5683,92.4958,0,U,68013,999,2182,.33022257E-3,.8838E-4,0
STARLINK-36985,2026-039AE,2026-07-19T05:27:47.860128,15.27587952,.00017826,43.0023,25.7780,263.9063,96.1586,0,U,68014,999,2182,.25154975E-3,.6668E-4,0
STARLINK-36335,2026-040A,2026-07-18T19:37:17.391360,15.33450218,.00013329,97.2821,147.9816,81.5454,278.5940,0,U,68015,999,2155,.34424587E-3,.11057E-3,0
STARLINK-36923,2026-040B,2026-07-19T03:19:17.660640,15.33455658,.00020952,97.2833,148.3109,91.3169,268.8314,0,U,68016,999,2160,.31686151E-3,.10172E-3,0
STARLINK-36568,2026-040C,2026-07-18T19:25:34.043520,15.33463335,.00020838,97.2831,147.9946,102.9208,257.2267,0,U,68017,999,2155,.73294324E-3,.23676E-3,0
STARLINK-36930,2026-040D,2026-07-18T19:33:22.375584,15.33452597,.00018501,97.2834,147.9866,95.3374,264.8080,0,U,68018,999,2155,.32400267E-3,.10402E-3,0
STARLINK-36921,2026-040E,2026-07-18T19:17:42.804960,15.33452257,.0002113,97.2827,148.0021,96.1334,264.0150,0,U,68019,999,2155,.34359576E-3,.11037E-3,0
STARLINK-36928,2026-040F,2026-07-19T03:11:27.855456,15.33451712,.00017695,97.2833,148.3186,80.7794,279.3648,0,U,68020,999,2160,.33063552E-3,.10617E-3,0
STARLINK-36858,2026-040G,2026-07-19T02:55:48.049824,15.33451691,.00020591,97.2854,148.3376,98.8569,261.2907,0,U,68021,999,2163,.32268878E-3,.10359E-3,0
STARLINK-36916,2026-040H,2026-07-19T03:03:37.689984,15.33462341,.00018456,97.2831,148.3226,88.6707,271.4747,0,U,68022,999,2160,.40143177E-3,.12914E-3,0
STARLINK-36871,2026-040J,2026-07-18T20:43:51.032640,15.33450143,.00018078,97.2840,148.0746,90.8305,269.3144,0,U,68023,999,2156,.32052839E-3,.10289E-3,0
STARLINK-36891,2026-040K,2026-07-18T20:36:01.022688,15.33453931,.00018778,97.2831,148.0788,93.5238,266.6220,0,U,68024,999,2156,.38728074E-3,.12452E-3,0
STARLINK-36378,2026-040L,2026-07-18T20:28:11.143200,15.33453127,.00016553,97.2838,148.0870,90.9368,269.2064,0,U,68025,999,2156,.39126166E-3,.12581E-3,0
STARLINK-36884,2026-040M,2026-07-18T20:32:05.959392,15.33456460,.00024212,97.2834,148.0846,97.4733,262.6785,0,U,68026,999,2156,.34208033E-3,.10989E-3,0
STARLINK-36940,2026-040N,2026-07-18T19:41:12.078816,15.33457929,.0002079,97.2831,148.1348,98.1154,262.0324,0,U,68027,999,2156,.49274549E-3,.15873E-3,0
STARLINK-36944,2026-040Q,2026-07-18T20:24:16.243200,15.33454439,.00018039,97.2833,148.0910,90.1477,269.9972,0,U,68029,999,2156,.44685787E-3,.14383E-3,0
STARLINK-36942,2026-040R,2026-07-19T02:36:13.631040,15.33448348,.00015196,97.2845,148.3522,89.5346,270.6071,0,U,68030,999,2160,.28640123E-3,.9183E-4,0
STARLINK-36913,2026-040S,2026-07-19T07:14:12.740640,15.33452412,.00011281,97.2844,148.5444,110.9388,249.1975,0,U,68031,999,2163,.41948829E-3,.13495E-3,0
STARLINK-36935,2026-040T,2026-07-19T06:42:53.246016,15.33450187,.00010333,97.2845,148.5802,65.2399,294.8951,0,U,68032,999,2163,.35216294E-3,.11313E-3,0
STARLINK-36947,2026-040U,2026-07-19T07:10:17.801760,15.33450922,.00010542,97.2843,148.5541,89.2480,270.8883,0,U,68033,999,2163,.3666045E-3,.11781E-3,0
STARLINK-36939,2026-040V,2026-07-19T06:54:38.319264,15.33447007,.00018408,97.2831,148.5644,111.1422,249.0018,0,U,68034,999,2163,.26338924E-3,.8438E-4,0
STARLINK-36943,2026-040W,2026-07-19T06:46:48.222048,15.33450005,.00015078,97.2841,148.5760,89.1136,271.0280,0,U,68035,999,2276,.26487488E-3,.8487E-4,0
STARLINK-36906,2026-040X,2026-07-19T06:58:31.826496,15.33433352,.00015445,97.2858,148.5610,95.7429,264.3990,0,U,68036,999,2163,-.13336047E-4,-.506E-5,0
STARLINK-36388,2026-040Y,2026-07-19T06:50:43.155744,15.33451625,.00012016,97.2846,148.5699,67.1782,292.9588,0,U,68037,999,2163,.32789639E-3,.10528E-3,0
